AMC-11                  
1 28252U 04017A   24197.61374073 -.00000032  00000+0  00000+0 0  9999
2 28252   0.0415 299.9528 0001276 175.8286 288.0303  1.00274116 73835
INTELSAT 10-02          
1 28358U 04022A   24197.85396734  .00000007  00000+0  00000+0 0  9997
2 28358   0.0388 260.8024 0001405 191.0037 148.8178  1.00269953 73529
ANIK F2                 
1 28378U 04027A   24197.61374073 -.00000033  00000+0  00000+0 0  9990
2 28378   1.4721  88.2860 0002825  13.5209 302.0025  1.00272237 34221
AMC-15                  
1 28446U 04041A   24198.19563209 -.00000070  00000+0  00000+0 0  9998
2 28446   0.0515 289.1442 0002445 175.8593 154.8991  1.00271035 72319
NSS-10                  
1 28526U 05003A   24197.19428650 -.00000237  00000+0  00000+0 0  9990
2 28526   4.6841  78.8769 0003011  28.5091 218.6349  1.00271533 46110
XTAR-EUR                
1 28542U 05005A   24197.34042962  .00000167  00000+0  00000+0 0  9996
2 28542   2.5191  85.5063 0002986  26.1474 333.5640  1.00273047 71148
XM-3 (RHYTHM)           
1 28626U 05008A   24197.61896208 -.00000187  00000+0  00000+0 0  9995
2 28626   0.0157 220.2507 0004449   2.2989 209.0708  1.00270460 35585
INMARSAT 4-F1           
1 28628U 05009A   24197.56125784  .00000048  00000+0  00000+0 0  9991
2 28628   4.3077  41.1605 0001882  84.6555 188.2338  1.00272085 70632
DIRECTV 8               
1 28659U 05019A   24197.68354032  .00000019  00000+0  00000+0 0  9997
2 28659   0.0119 325.6422 0003171 156.7478 298.6616  1.00273014 70033
GALAXY 28 (G-28)        
1 28702U 05022A   24198.14205966 -.00000168  00000+0  00000+0 0  9999
2 28702   1.4842  87.6641 0001626 153.1412  15.7916  1.00271093 69797
THAICOM 4               
1 28786U 05028A   24197.68260986 -.00000344  00000+0  00000+0 0  9994
2 28786   0.0249  45.2174 0002099  71.9991 182.0452  1.00269890 45216
GALAXY 14 (G-14)        
1 28790U 05030A   24197.78548027  .00000170  00000+0  00000+0 0  9994
2 28790   3.2017  83.5090 0001589  17.1608 149.1179  1.00270048 69270
ANIK F1R                
1 28868U 05036A   24198.19563209 -.00000059  00000+0  00000+0 0  9998
2 28868   2.5042  85.3081 0003793  18.7310 153.6012  1.00272094 69125
SYRACUSE 3A             
1 28885U 05041B   24197.85971413  .00000147  00000+0  00000+0 0  9992
2 28885   2.8460  84.5834 0002328  30.6178 174.6646  1.00273734 68718
INMARSAT 4-F2           
1 28899U 05044A   24197.83834219 -.00000246  00000+0  00000+0 0  9991
2 28899   4.2198  42.5643 0002016  80.5208 256.3656  1.00270756 68485
SPACEWAY 2              
1 28903U 05046B   24197.67979834  .00000117  00000+0  00000+0 0  9990
2 28903   3.6719  79.9476 0000056 312.7318   7.2459  1.00279531 44304
METEOSAT-9 (MSG-2)      
1 28912U 05049B   24197.78800392  .00000136  00000+0  00000+0 0  9998
2 28912   7.7494  60.6285 0002034   5.1065 197.8203  1.00277513 68019
EUTELSAT 174A           
1 28924U 05052A   24197.88000850  .00000026  00000+0  00000+0 0  9995
2 28924   2.4307  85.1965 0006476  27.5552 312.2415  1.00273086 45291
ECHOSTAR 10             
1 28935U 06003A   24197.68554184 -.00000037  00000+0  00000+0 0  9999
2 28935   0.0289 304.1360 0001805 132.3964 354.0794  1.00272456 67436
SPAINSAT                
1 28945U 06007A   24197.26780252 -.00000198  00000+0  00000+0 0  9993
2 28945   0.0362 221.9009 0004567 281.9791 216.1503  1.00270842 67187
EUTELSAT HOTBIRD 13E    
1 28946U 06007B   24197.85309752  .00000104  00000+0  00000+0 0  9997
2 28946   0.2845 105.0846 0005050  11.6091 137.3786  1.00271863 67299
JCSAT-5A                
1 29045U 06010A   24197.53714538 -.00000310  00000+0  00000+0 0  9999
2 29045   0.0129 345.9615 0000189 164.8911 108.4268  1.00270151 66733
ASTRA 1KR               
1 29055U 06012A   24197.35341852  .00000137  00000+0  00000+0 0  9993
2 29055   0.0649 275.8696 0002666 243.4610 280.7948  1.00269107 38684
EWS-G1 (GOES 13)        
1 29155U 06018A   24197.90631819 -.00000132  00000+0  00000+0 0  9992
2 29155   2.6981  84.9686 0077272 256.0098  29.4646  0.99048781 36316
GALAXY 16 (G-16)        
1 29236U 06023A   24197.68771741 -.00000108  00000+0  00000+0 0  9995
2 29236   0.0456 239.2831 0002891 236.6514 326.6505  1.00272478 65935
EUTELSAT HOTBIRD 13B    
1 29270U 06032A   24197.83035416  .00000174  00000+0  00000+0 0  9994
2 29270   0.0273  32.0376 0004637  91.4025 142.7123  1.00270875 40279
JCSAT-3A                
1 29272U 06033A   24197.87119418 -.00000327  00000+0  00000+0 0  9997
2 29272   0.0275 287.8438 0002298 186.9551 261.0369  1.00270715 40705
SYRACUSE 3B             
1 29273U 06033B   24198.06411135 -.00000026  00000+0  00000+0 0  9997
2 29273   1.0944  89.1892 0003529  22.3536 200.7060  1.00271895 65728
KOREASAT 5 (MUGUNGWHA 5)
1 29349U 06034A   24197.90817856 -.00000340  00000+0  00000+0 0  9993
2 29349   0.0293 168.2988 0001643 345.9403 219.9973  1.00271991 34284
DIRECTV 9S              
1 29494U 06043A   24198.19563209 -.00000095  00000+0  00000+0 0  9993
2 29494   0.6026  89.3034 0003171  27.3555 147.0795  1.00272043 65070
OPTUS D1                
1 29495U 06043B   24197.89702177 -.00000167  00000+0  00000+0 0  9999
2 29495   1.2166  88.5015 0003947  23.5854 297.0454  1.00270116 65082
BADR-4                  
1 29526U 06051A   24197.87063174  .00000164  00000+0  00000+0 0  9994
2 29526   0.1881  81.2154 0001715  28.5006 164.1770  1.00274092 64854
WILDBLUE-1              
1 29643U 06054A   24198.19563209 -.00000032  00000+0  00000+0 0  9992
2 29643   0.9846  89.9057 0001835  22.6751 141.1821  1.00272493 64513
SKYNET 5A               
1 30794U 07007B   24197.89167831 -.00000256  00000+0  00000+0 0  9995
2 30794   3.5031  82.1888 0003306  37.2662 230.9676  1.00270557 63661
ANIK F3                 
1 31102U 07009A   24198.18466269  .00000018  00000+0  00000+0 0  9996
2 31102   0.0219  39.8201 0002447  63.5629 138.8863  1.00269926 63306
ASTRA 1L                
1 31306U 07016A   24197.63967347  .00000138  00000+0  00000+0 0  9995
2 31306   0.0786 304.4983 0001037 130.4307 108.5183  1.00270339 37962
GALAXY 17 (G-17)        
1 31307U 07016B   24198.19136281 -.00000189  00000+0  00000+0 0  9990
2 31307   1.1872  89.0279 0004332  38.1550 151.2113  1.00272095 63047
ZHONGXING-6B            
1 31800U 07031A   24198.15118878 -.00000343  00000+0  00000+0 0  9995
2 31800   0.5860  90.9138 0002868  25.8333 347.4818  1.00272361 62444
DIRECTV 10              
1 31862U 07032A   24197.39910650 -.00000085  00000+0  00000+0 0  9990
2 31862   0.0380 227.2080 0000177   0.8835 106.5257  1.00272308 62369
BSAT-3A                 
1 32019U 07036B   24197.62847876 -.00000332  00000+0  00000+0 0  9999
2 32019   0.0524 220.7191 0002560 315.1426  94.1909  1.00270929 43497
OPTUS D2                
1 32252U 07044A   24197.89702177 -.00000092  00000+0  00000+0 0  9993
2 32252   0.2528  91.7755 0003637  24.2953 301.1338  1.00271878 61539
INTELSAT 11 (IS-11)     
1 32253U 07044B   24197.77045187 -.00000252  00000+0  00000+0 0  9990
2 32253   1.7354  87.4757 0003257  32.3129  48.6675  1.00271368 61463
WGS F1 (USA 195)        
1 32258U 07046A   24197.17699644 -.00000249  00000+0  00000+0 0  9990
2 32258   0.1021  92.5131 0002720 346.3878 235.8864  1.00278771 45308
SKYNET 5B               
1 32294U 07056B   24197.87063174  .00000156  00000+0  00000+0 0  9997
2 32294   3.4588  81.8132 0003297  31.4136 159.4923  1.00273142 61169
ASTRA 4A                
1 32299U 07057A   24197.85396734  .00000051  00000+0  00000+0 0  9996
2 32299   0.0121  34.2672 0003145  65.4102 146.7398  1.00271176 44625
HORIZONS-2              
1 32388U 07063B   24197.76427405 -.00000235  00000+0  00000+0 0  9997
2 32388   0.7830  89.3948 0002123  25.3099  20.7329  1.00270864 60783
THURAYA-3               
1 32404U 08001A   24197.89344769 -.00000288  00000+0  00000+0 0  9992
2 32404   4.8898  32.6943 0002387  73.5196 248.1497  1.00270838 60459
THOR 5                  
1 32487U 08006A   24197.34950250  .00000009  00000+0  00000+0 0  9996
2 32487   0.0312 222.8117 0002499 249.4604 306.4711  1.00271740 60143
AMC-14                  
1 32708U 08011A   24197.71095247  .00000074  00000+0  00000+0 0  9997
2 32708  23.1245  28.9525 0038542   6.3937 172.1561  1.00276409 61122
DIRECTV 11              
1 32729U 08013A   24197.61617735 -.00000107  00000+0  00000+0 0  9991
2 32729   0.0359 208.1475 0000330 260.4103 308.0242  1.00271545 59908
ICO G1                  
1 32763U 08016A   24198.04673122 -.00000158  00000+0  00000+0 0  9998
2 32763   4.9495  35.2082 0002139  72.3998 110.7333  1.00271964 59436
VINASAT-1               
1 32767U 08018A   24197.75322284 -.00000310  00000+0  00000+0 0  9991
2 32767   0.0457 285.5429 0001929 196.8366 214.7997  1.00272954 59551
STAR ONE C2             
1 32768U 08018B   24198.19536584 -.00000258  00000+0  00000+0 0  9992
2 32768   0.0338 329.2719 0002681 144.7509 185.8215  1.00270216 59511
AMOS-3                  
1 32794U 08022A   24197.77817038 -.00000017  00000+0  00000+0 0  9998
2 32794   0.0154  86.2206 0001438  55.0700  68.8177  1.00273302 59418
GALAXY 18 (G-18)        
1 32951U 08024A   24197.75444049  .00000043  00000+0  00000+0 0  9999
2 32951   0.0135 313.0487 0003084 163.1638 326.4573  1.00274051 38810
ZHONGXING-9             
1 33051U 08028A   24197.89216174 -.00000229  00000+0  00000+0 0  9993
2 33051   0.0277 110.4807 0005305  22.5978 214.5141  1.00270004 59003
SKYNET 5C               
1 33055U 08030A   24198.06167472 -.00000123  00000+0  00000+0 0  9999
2 33055   1.9792  85.1125 0003858  35.5936 178.0865  1.00272276 58862
TURKSAT 3A              
1 33056U 08030B   24197.64422365  .00000164  00000+0  00000+0 0  9992
2 33056   0.0304 119.1305 0005398   0.0425  88.6866  1.00271317 45320
INTELSAT 25 (IS-25)     
1 33153U 08034A   24197.70111890 -.00000206  00000+0  00000+0 0  9997
2 33153   0.8905  89.0465 0003138  27.6197  38.2599  1.00271866 58660
BADR-6                  
1 33154U 08034B   24197.87063174  .00000162  00000+0  00000+0 0  9997
2 33154   1.0312  86.7971 0008448  17.8103 169.2196  1.00271260 58711
